{
  "type": "FeatureCollection",
  "features": [
    {
      "type": "Feature",
      "properties": {
        "norad_id": 35020,
        "name": "COSMOS 2251 DEB",
        "group": "cosmos-2251-debris",
        "lat": 31.776480593765623,
        "lon": -133.05670854277977,
        "alt_km": 649.602646400459,
        "timestamp": "2025-12-03T10:52:57.852175+00:00",
        "meta_object_name": "COSMOS 2251 DEB",
        "meta_object_id": "1993-036AGH",
        "meta_epoch": "2025-12-03T02:31:35.390208",
        "meta_mean_motion": 14.6277767,
        "meta_eccentricity": 0.0091151,
        "meta_inclination": 74.049,
        "meta_ra_of_asc_node": 217.4049,
        "meta_arg_of_pericenter": 333.8786,
        "meta_mean_anomaly": 25.7795,
        "meta_ephemeris_type": 0,
        "meta_classification_type": "U",
        "meta_norad_cat_id": 35020,
        "meta_element_set_no": 999,
        "meta_rev_at_epoch": 88097,
        "meta_bstar": 0.00024246,
        "meta_mean_motion_dot": 1.279e-05,
        "meta_mean_motion_ddot": 0,
        "tle_line1": "1 35020U 93036AGH 25337.10527072  .00001279  00000+0  24246-3 0  9994",
        "tle_line2": "2 35020  74.0490 217.4049 0091151 333.8786  25.7795 14.62777670880972"
      },
      "geometry": {
        "type": "Point",
        "coordinates": [
          -133.05670854277977,
          31.776480593765623
        ]
      }
    },
    {
      "type": "Feature",
      "properties": {
        "norad_id": 35022,
        "name": "COSMOS 2251 DEB",
        "group": "cosmos-2251-debris",
        "lat": 28.46394028192679,
        "lon": 150.75417410256827,
        "alt_km": 660.637560444572,
        "timestamp": "2025-12-03T10:52:57.852187+00:00",
        "meta_object_name": "COSMOS 2251 DEB",
        "meta_object_id": "1993-036AGK",
        "meta_epoch": "2025-12-02T17:45:34.658208",
        "meta_mean_motion": 14.60763876,
        "meta_eccentricity": 0.0047291,
        "meta_inclination": 74.0262,
        "meta_ra_of_asc_node": 341.0512,
        "meta_arg_of_pericenter": 183.6287,
        "meta_mean_anomaly": 176.4543,
        "meta_ephemeris_type": 0,
        "meta_classification_type": "U",
        "meta_norad_cat_id": 35022,
        "meta_element_set_no": 999,
        "meta_rev_at_epoch": 58997,
        "meta_bstar": 0.00056913,
        "meta_mean_motion_dot": 2.791e-05,
        "meta_mean_motion_ddot": 0,
        "tle_line1": "1 35022U 93036AGK 25336.73998447  .00002791  00000+0  56913-3 0  9998",
        "tle_line2": "2 35022  74.0262 341.0512 0047291 183.6287 176.4543 14.60763876589975"
      },
      "geometry": {
        "type": "Point",
        "coordinates": [
          150.75417410256827,
          28.46394028192679
        ]
      }
    },
    {
      "type": "Feature",
      "properties": {
        "norad_id": 35023,
        "name": "COSMOS 2251 DEB",
        "group": "cosmos-2251-debris",
        "lat": -73.81865184333412,
        "lon": 131.81976794951723,
        "alt_km": 573.1511249163095,
        "timestamp": "2025-12-03T10:52:57.852198+00:00",
        "meta_object_name": "COSMOS 2251 DEB",
        "meta_object_id": "1993-036AGL",
        "meta_epoch": "2025-12-03T03:56:01.944096",
        "meta_mean_motion": 14.94570592,
        "meta_eccentricity": 0.0034556,
        "meta_inclination": 74.0389,
        "meta_ra_of_asc_node": 231.8891,
        "meta_arg_of_pericenter": 311.6076,
        "meta_mean_anomaly": 198.8445,
        "meta_ephemeris_type": 0,
        "meta_classification_type": "U",
        "meta_norad_cat_id": 35023,
        "meta_element_set_no": 999,
        "meta_rev_at_epoch": 88136,
        "meta_bstar": 0.0023721,
        "meta_mean_motion_dot": 0.00026024,
        "meta_mean_motion_ddot": 0,
        "tle_line1": "1 35023U 93036AGL 25337.16391139  .00026024  00000+0  23721-2 0  9997",
        "tle_line2": "2 35023  74.0389 231.8891 0034556 311.6076 198.8445 14.94570592881366"
      },
      "geometry": {
        "type": "Point",
        "coordinates": [
          131.81976794951723,
          -73.81865184333412
        ]
      }
    },
    {
      "type": "Feature",
      "properties": {
        "norad_id": 35025,
        "name": "COSMOS 2251 DEB",
        "group": "cosmos-2251-debris",
        "lat": 3.3593370829839198,
        "lon": 82.08757634273503,
        "alt_km": 595.8607281303275,
        "timestamp": "2025-12-03T10:52:57.852209+00:00",
        "meta_object_name": "COSMOS 2251 DEB",
        "meta_object_id": "1993-036AGN",
        "meta_epoch": "2025-12-03T01:05:05.185824",
        "meta_mean_motion": 14.72628151,
        "meta_eccentricity": 0.0084667,
        "meta_inclination": 73.9382,
        "meta_ra_of_asc_node": 81.9179,
        "meta_arg_of_pericenter": 356.9044,
        "meta_mean_anomaly": 3.1592,
        "meta_ephemeris_type": 0,
        "meta_classification_type": "U",
        "meta_norad_cat_id": 35025,
        "meta_element_set_no": 999,
        "meta_rev_at_epoch": 88500,
        "meta_bstar": 0.00048771,
        "meta_mean_motion_dot": 3.252e-05,
        "meta_mean_motion_ddot": 0,
        "tle_line1": "1 35025U 93036AGN 25337.04519891  .00003252  00000+0  48771-3 0  9994",
        "tle_line2": "2 35025  73.9382  81.9179 0084667 356.9044   3.1592 14.72628151885004"
      },
      "geometry": {
        "type": "Point",
        "coordinates": [
          82.08757634273503,
          3.3593370829839198
        ]
      }
    },
    {
      "type": "Feature",
      "properties": {
        "norad_id": 35026,
        "name": "COSMOS 2251 DEB",
        "group": "cosmos-2251-debris",
        "lat": 27.730859329549233,
        "lon": 147.6847481331143,
        "alt_km": 681.5093301633242,
        "timestamp": "2025-12-03T10:52:57.852221+00:00",
        "meta_object_name": "COSMOS 2251 DEB",
        "meta_object_id": "1993-036AGP",
        "meta_epoch": "2025-12-02T18:29:37.927968",
        "meta_mean_motion": 14.53613383,
        "meta_eccentricity": 0.0082259,
        "meta_inclination": 74.0462,
        "meta_ra_of_asc_node": 337.6224,
        "meta_arg_of_pericenter": 93.9267,
        "meta_mean_anomaly": 84.2291,
        "meta_ephemeris_type": 0,
        "meta_classification_type": "U",
        "meta_norad_cat_id": 35026,
        "meta_element_set_no": 999,
        "meta_rev_at_epoch": 87998,
        "meta_bstar": 8.1431e-05,
        "meta_mean_motion_dot": 3.26e-06,
        "meta_mean_motion_ddot": 0,
        "tle_line1": "1 35026U 93036AGP 25336.77057787  .00000326  00000+0  81431-4 0  9995",
        "tle_line2": "2 35026  74.0462 337.6224 0082259  93.9267  84.2291 14.53613383879984"
      },
      "geometry": {
        "type": "Point",
        "coordinates": [
          147.6847481331143,
          27.730859329549233
        ]
      }
    },
    {
      "type": "Feature",
      "properties": {
        "norad_id": 35028,
        "name": "COSMOS 2251 DEB",
        "group": "cosmos-2251-debris",
        "lat": 13.97711725730032,
        "lon": 104.51742741759288,
        "alt_km": 715.04640094343,
        "timestamp": "2025-12-03T10:52:57.852232+00:00",
        "meta_object_name": "COSMOS 2251 DEB",
        "meta_object_id": "1993-036AGR",
        "meta_epoch": "2025-12-02T06:25:23.155104",
        "meta_mean_motion": 14.56551575,
        "meta_eccentricity": 0.0082171,
        "meta_inclination": 74.0378,
        "meta_ra_of_asc_node": 290.8521,
        "meta_arg_of_pericenter": 67.459,
        "meta_mean_anomaly": 1.5597,
        "meta_ephemeris_type": 0,
        "meta_classification_type": "U",
        "meta_norad_cat_id": 35028,
        "meta_element_set_no": 999,
        "meta_rev_at_epoch": 88133,
        "meta_bstar": 0.00014816,
        "meta_mean_motion_dot": 6.6e-06,
        "meta_mean_motion_ddot": 0,
        "tle_line1": "1 35028U 93036AGR 25336.26762911  .00000660  00000+0  14816-3 0  9996",
        "tle_line2": "2 35028  74.0378 290.8521 0082171  67.4590   1.5597 14.56551575881330"
      },
      "geometry": {
        "type": "Point",
        "coordinates": [
          104.51742741759288,
          13.97711725730032
        ]
      }
    },
    {
      "type": "Feature",
      "properties": {
        "norad_id": 35031,
        "name": "COSMOS 2251 DEB",
        "group": "cosmos-2251-debris",
        "lat": -32.619645790375905,
        "lon": -94.18364233154212,
        "alt_km": 760.7706453537439,
        "timestamp": "2025-12-03T10:52:57.852243+00:00",
        "meta_object_name": "COSMOS 2251 DEB",
        "meta_object_id": "1993-036AGU",
        "meta_epoch": "2025-12-03T02:41:37.542048",
        "meta_mean_motion": 14.38274167,
        "meta_eccentricity": 0.0018437,
        "meta_inclination": 74.0383,
        "meta_ra_of_asc_node": 276.9995,
        "meta_arg_of_pericenter": 12.5533,
        "meta_mean_anomaly": 347.6077,
        "meta_ephemeris_type": 0,
        "meta_classification_type": "U",
        "meta_norad_cat_id": 35031,
        "meta_element_set_no": 999,
        "meta_rev_at_epoch": 65145,
        "meta_bstar": 0.00026325,
        "meta_mean_motion_dot": 7.76e-06,
        "meta_mean_motion_ddot": 0,
        "tle_line1": "1 35031U 93036AGU 25337.11224007  .00000776  00000+0  26325-3 0  9990",
        "tle_line2": "2 35031  74.0383 276.9995 0018437  12.5533 347.6077 14.38274167651456"
      },
      "geometry": {
        "type": "Point",
        "coordinates": [
          -94.18364233154212,
          -32.619645790375905
        ]
      }
    }
  ]
}